{
  "type": "FeatureCollection",
  "features": [
    {
      "type": "Feature",
      "properties": {
        "norad_id": 29954,
        "name": "FENGYUN 1C DEB",
        "group": "fengyun-1c-debris",
        "lat": -54.82667042044614,
        "lon": 46.06909898851584,
        "alt_km": 750.2522601189266,
        "timestamp": "2025-12-18T07:01:54.862353+00:00",
        "meta_object_name": "FENGYUN 1C DEB",
        "meta_object_id": "1999-025KC",
        "meta_epoch": "2025-12-17T16:13:26.908032",
        "meta_mean_motion": 14.34254518,
        "meta_eccentricity": 0.00744694,
        "meta_inclination": 100.1509,
        "meta_ra_of_asc_node": 30.618,
        "meta_arg_of_pericenter": 255.3008,
        "meta_mean_anomaly": 103.9909,
        "meta_ephemeris_type": 0,
        "meta_classification_type": "U",
        "meta_norad_cat_id": 29954,
        "meta_element_set_no": 999,
        "meta_rev_at_epoch": 98258,
        "meta_bstar": 0.00065198483,
        "meta_mean_motion_dot": 1.829e-05,
        "meta_mean_motion_ddot": 0,
        "tle_line1": "1 29954U 99025KC  25351.67600588  .00001829  00000+0  65198-3 0  9991",
        "tle_line2": "2 29954 100.1509  30.6180 0074469 255.3008 103.9909 14.34254518982588"
      },
      "geometry": {
        "type": "Point",
        "coordinates": [
          46.06909898851584,
          -54.82667042044614
        ]
      }
    },
    {
      "type": "Feature",
      "properties": {
        "norad_id": 29955,
        "name": "FENGYUN 1C DEB",
        "group": "fengyun-1c-debris",
        "lat": 62.79653837433585,
        "lon": -88.06358376612947,
        "alt_km": 760.5215239909694,
        "timestamp": "2025-12-18T07:01:54.862363+00:00",
        "meta_object_name": "FENGYUN 1C DEB",
        "meta_object_id": "1999-025KD",
        "meta_epoch": "2025-12-17T03:54:55.204416",
        "meta_mean_motion": 14.3828119,
        "meta_eccentricity": 0.0007862,
        "meta_inclination": 99.2741,
        "meta_ra_of_asc_node": 72.1819,
        "meta_arg_of_pericenter": 235.7647,
        "meta_mean_anomaly": 153.0467,
        "meta_ephemeris_type": 0,
        "meta_classification_type": "U",
        "meta_norad_cat_id": 29955,
        "meta_element_set_no": 999,
        "meta_rev_at_epoch": 98125,
        "meta_bstar": 0.0011293659,
        "meta_mean_motion_dot": 3.387e-05,
        "meta_mean_motion_ddot": 0,
        "tle_line1": "1 29955U 99025KD  25351.16313894  .00003387  00000+0  11294-2 0  9995",
        "tle_line2": "2 29955  99.2741  72.1819 0007862 235.7647 153.0467 14.38281190981257"
      },
      "geometry": {
        "type": "Point",
        "coordinates": [
          -88.06358376612947,
          62.79653837433585
        ]
      }
    },
    {
      "type": "Feature",
      "properties": {
        "norad_id": 29956,
        "name": "FENGYUN 1C DEB",
        "group": "fengyun-1c-debris",
        "lat": -74.89015859045581,
        "lon": 166.01762130453398,
        "alt_km": 889.2035521259113,
        "timestamp": "2025-12-18T07:01:54.862374+00:00",
        "meta_object_name": "FENGYUN 1C DEB",
        "meta_object_id": "1999-025KE",
        "meta_epoch": "2025-12-17T21:50:35.255328",
        "meta_mean_motion": 14.06171259,
        "meta_eccentricity": 0.00534519,
        "meta_inclination": 98.7911,
        "meta_ra_of_asc_node": 20.6143,
        "meta_arg_of_pericenter": 3.0566,
        "meta_mean_anomaly": 118.1016,
        "meta_ephemeris_type": 0,
        "meta_classification_type": "U",
        "meta_norad_cat_id": 29956,
        "meta_element_set_no": 999,
        "meta_rev_at_epoch": 97122,
        "meta_bstar": 9.2354181e-05,
        "meta_mean_motion_dot": 1.11e-06,
        "meta_mean_motion_ddot": 0,
        "tle_line1": "1 29956U 99025KE  25351.91013027  .00000111  00000+0  92354-4 0  9994",
        "tle_line2": "2 29956  98.7911  20.6143 0053451   3.0566 118.1016 14.06171259971227"
      },
      "geometry": {
        "type": "Point",
        "coordinates": [
          166.01762130453398,
          -74.89015859045581
        ]
      }
    },
    {
      "type": "Feature",
      "properties": {
        "norad_id": 29957,
        "name": "FENGYUN 1C DEB",
        "group": "fengyun-1c-debris",
        "lat": 48.381879032714245,
        "lon": -50.22144506665445,
        "alt_km": 694.2038047623364,
        "timestamp": "2025-12-18T07:01:54.862384+00:00",
        "meta_object_name": "FENGYUN 1C DEB",
        "meta_object_id": "1999-025KF",
        "meta_epoch": "2025-12-17T07:32:44.428704",
        "meta_mean_motion": 14.51275587,
        "meta_eccentricity": 0.00375241,
        "meta_inclination": 98.9196,
        "meta_ra_of_asc_node": 118.5591,
        "meta_arg_of_pericenter": 164.8625,
        "meta_mean_anomaly": 256.2591,
        "meta_ephemeris_type": 0,
        "meta_classification_type": "U",
        "meta_norad_cat_id": 29957,
        "meta_element_set_no": 999,
        "meta_rev_at_epoch": 97558,
        "meta_bstar": 0.0034577084,
        "meta_mean_motion_dot": 0.00013857,
        "meta_mean_motion_ddot": 0,
        "tle_line1": "1 29957U 99025KF  25351.31440311  .00013857  00000+0  34577-2 0  9991",
        "tle_line2": "2 29957  98.9196 118.5591 0037524 164.8625 256.2591 14.51275587975588"
      },
      "geometry": {
        "type": "Point",
        "coordinates": [
          -50.22144506665445,
          48.381879032714245
        ]
      }
    },
    {
      "type": "Feature",
      "properties": {
        "norad_id": 29958,
        "name": "FENGYUN 1C DEB",
        "group": "fengyun-1c-debris",
        "lat": 30.363430771215366,
        "lon": 1.36937493529773,
        "alt_km": 831.2735910767251,
        "timestamp": "2025-12-18T07:01:54.862395+00:00",
        "meta_object_name": "FENGYUN 1C DEB",
        "meta_object_id": "1999-025KG",
        "meta_epoch": "2025-12-17T13:54:38.855232",
        "meta_mean_motion": 14.14463546,
        "meta_eccentricity": 0.00541212,
        "meta_inclination": 98.6681,
        "meta_ra_of_asc_node": 5.8043,
        "meta_arg_of_pericenter": 319.2519,
        "meta_mean_anomaly": 40.4612,
        "meta_ephemeris_type": 0,
        "meta_classification_type": "U",
        "meta_norad_cat_id": 29958,
        "meta_element_set_no": 999,
        "meta_rev_at_epoch": 97519,
        "meta_bstar": 0.00029612436,
        "meta_mean_motion_dot": 5.32e-06,
        "meta_mean_motion_ddot": 0,
        "tle_line1": "1 29958U 99025KG  25351.57961638  .00000532  00000+0  29612-3 0  9991",
        "tle_line2": "2 29958  98.6681   5.8043 0054121 319.2519  40.4612 14.14463546975192"
      },
      "geometry": {
        "type": "Point",
        "coordinates": [
          1.36937493529773,
          30.363430771215366
        ]
      }
    },
    {
      "type": "Feature",
      "properties": {
        "norad_id": 29959,
        "name": "FENGYUN 1C DEB",
        "group": "fengyun-1c-debris",
        "lat": -18.018342411091314,
        "lon": -160.08709286992283,
        "alt_km": 890.0737101355389,
        "timestamp": "2025-12-18T07:01:54.862405+00:00",
        "meta_object_name": "FENGYUN 1C DEB",
        "meta_object_id": "1999-025KH",
        "meta_epoch": "2025-12-17T22:07:43.281408",
        "meta_mean_motion": 14.06016691,
        "meta_eccentricity": 0.00415133,
        "meta_inclination": 98.8076,
        "meta_ra_of_asc_node": 22.4429,
        "meta_arg_of_pericenter": 313.1288,
        "meta_mean_anomaly": 168.7636,
        "meta_ephemeris_type": 0,
        "meta_classification_type": "U",
        "meta_norad_cat_id": 29959,
        "meta_element_set_no": 999,
        "meta_rev_at_epoch": 97013,
        "meta_bstar": 9.121741e-05,
        "meta_mean_motion_dot": 1.07e-06,
        "meta_mean_motion_ddot": 0,
        "tle_line1": "1 29959U 99025KH  25351.92202872  .00000107  00000+0  91217-4 0  9998",
        "tle_line2": "2 29959  98.8076  22.4429 0041513 313.1288 168.7636 14.06016691970138"
      },
      "geometry": {
        "type": "Point",
        "coordinates": [
          -160.08709286992283,
          -18.018342411091314
        ]
      }
    },
    {
      "type": "Feature",
      "properties": {
        "norad_id": 29960,
        "name": "FENGYUN 1C DEB",
        "group": "fengyun-1c-debris",
        "lat": 58.234819706780584,
        "lon": 171.85560637077222,
        "alt_km": 888.2276822840586,
        "timestamp": "2025-12-18T07:01:54.862416+00:00",
        "meta_object_name": "FENGYUN 1C DEB",
        "meta_object_id": "1999-025KJ",
        "meta_epoch": "2025-12-17T17:45:00.754848",
        "meta_mean_motion": 14.16412615,
        "meta_eccentricity": 0.00908635,
        "meta_inclination": 98.6143,
        "meta_ra_of_asc_node": 337.149,
        "meta_arg_of_pericenter": 271.7656,
        "meta_mean_anomaly": 269.1367,
        "meta_ephemeris_type": 0,
        "meta_classification_type": "U",
        "meta_norad_cat_id": 29960,
        "meta_element_set_no": 999,
        "meta_rev_at_epoch": 97525,
        "meta_bstar": 0.0003845639,
        "meta_mean_motion_dot": 7.52e-06,
        "meta_mean_motion_ddot": 0,
        "tle_line1": "1 29960U 99025KJ  25351.73959207  .00000752  00000+0  38456-3 0  9991",
        "tle_line2": "2 29960  98.6143 337.1490 0090863 271.7656 269.1367 14.16412615975259"
      },
      "geometry": {
        "type": "Point",
        "coordinates": [
          171.85560637077222,
          58.234819706780584
        ]
      }
    }
  ]
}